{"fetched_at":"2026-03-29T16:36:15Z","count":15609,"tles":[{"name":"STARLINK-31941","line1":"1 59866U 24098J   26087.89063460 -.00004715  00000+0 -16184-3 0  9997","line2":"2 59866  43.0018 151.8142 0000752 319.8425  40.2371 15.27597466104981","category":"Starlink"}]}