{
  "norad_id": 59866,
  "name": "STARLINK-31941",
  "history": [
    {
      "epoch": "2026-03-28T21:22:30.829440Z",
      "apogee_km": 483.51275431214253,
      "perigee_km": 482.4808397890665,
      "latitude_deg": 1.5775595624695622e-06,
      "longitude_deg": 4.881160240204963,
      "height_km": 482.3786051312413,
      "semi_major_axis_km": 6861.133797050605,
      "eccentricity": 7.52e-05,
      "inclination_deg": 43.0018,
      "raan_deg": 151.8142,
      "arg_perigee_deg": 319.8425,
      "mean_anomaly_deg": 40.2371,
      "mean_motion_rev_day": 15.27597466
    }
  ]
}